[{"OBJECT_NAME":"STARLINK-3955","OBJECT_ID":"2022-051AE","EPOCH":"2025-11-05T08:44:21.066144","MEAN_MOTION":15.08838826,"ECCENTRICITY":0.00014466,"INCLINATION":53.2181,"RA_OF_ASC_NODE":332.239,"ARG_OF_PERICENTER":87.3108,"MEAN_ANOMALY":272.805,"EPHEMERIS_TYPE":0,"CLASSIFICATION_TYPE":"U","NORAD_CAT_ID":52561,"ELEMENT_SET_NO":999,"REV_AT_EPOCH":19260,"BSTAR":2.5364478e-5,"MEAN_MOTION_DOT":1.16e-6,"MEAN_MOTION_DDOT":0},{"OBJECT_NAME":"STARLINK-3957","OBJECT_ID":"2022-051AF","EPOCH":"2025-11-05T07:24:12.163968","MEAN_MOTION":15.08840275,"ECCENTRICITY":0.00016139,"INCLINATION":53.219,"RA_OF_ASC_NODE":317.4894,"ARG_OF_PERICENTER":102.1346,"MEAN_ANOMALY":257.9827,"EPHEMERIS_TYPE":0,"CLASSIFICATION_TYPE":"U","NORAD_CAT_ID":52562,"ELEMENT_SET_NO":999,"REV_AT_EPOCH":19280,"BSTAR":-6.0718799e-5,"MEAN_MOTION_DOT":-1.254e-5,"MEAN_MOTION_DDOT":0},{"OBJECT_NAME":"STARLINK-3942","OBJECT_ID":"2022-051AG","EPOCH":"2025-11-05T08:49:39.173664","MEAN_MOTION":15.08836487,"ECCENTRICITY":0.00011577,"INCLINATION":53.2187,"RA_OF_ASC_NODE":332.2233,"ARG_OF_PERICENTER":81.2433,"MEAN_ANOMALY":278.869,"EPHEMERIS_TYPE":0,"CLASSIFICATION_TYPE":"U","NORAD_CAT_ID":52563,"ELEMENT_SET_NO":999,"REV_AT_EPOCH":19260,"BSTAR":-9.169619e-6,"MEAN_MOTION_DOT":-4.34e-6,"MEAN_MOTION_DDOT":0},{"OBJECT_NAME":"STARLINK-3959","OBJECT_ID":"2022-051AH","EPOCH":"2025-11-05T08:40:24.665376","MEAN_MOTION":15.0885495,"ECCENTRICITY":0.00014043,"INCLINATION":53.2184,"RA_OF_ASC_NODE":332.2606,"ARG_OF_PERICENTER":87.4049,"MEAN_ANOMALY":272.7104,"EPHEMERIS_TYPE":0,"CLASSIFICATION_TYPE":"U","NORAD_CAT_ID":52564,"ELEMENT_SET_NO":999,"REV_AT_EPOCH":19260,"BSTAR":0.00014671516,"MEAN_MOTION_DOT":2.049e-5,"MEAN_MOTION_DDOT":0},{"OBJECT_NAME":"STARLINK-3911","OBJECT_ID":"2022-051AJ","EPOCH":"2025-11-05T23:23:21.532992","MEAN_MOTION":15.08837603,"ECCENTRICITY":0.00013211,"INCLINATION":53.2173,"RA_OF_ASC_NODE":314.4999,"ARG_OF_PERICENTER":87.4099,"MEAN_ANOMALY":272.7045,"EPHEMERIS_TYPE":0,"CLASSIFICATION_TYPE":"U","NORAD_CAT_ID":52565,"ELEMENT_SET_NO":999,"REV_AT_EPOCH":19290,"BSTAR":2.163506e-6,"MEAN_MOTION_DOT":-2.53e-6,"MEAN_MOTION_DDOT":0},{"OBJECT_NAME":"STARLINK-3938","OBJECT_ID":"2022-051AK","EPOCH":"2025-11-05T08:07:15.425472","MEAN_MOTION":15.08841064,"ECCENTRICITY":0.00015903,"INCLINATION":53.2187,"RA_OF_ASC_NODE":332.3552,"ARG_OF_PERICENTER":81.0477,"MEAN_ANOMALY":279.0695,"EPHEMERIS_TYPE":0,"CLASSIFICATION_TYPE":"U","NORAD_CAT_ID":52566,"ELEMENT_SET_NO":999,"REV_AT_EPOCH":19260,"BSTAR":1.1203622e-5,"MEAN_MOTION_DOT":-1.1e-6,"MEAN_MOTION_DDOT":0},{"OBJECT_NAME":"STARLINK-3929","OBJECT_ID":"2022-051AL","EPOCH":"2025-11-05T07:18:53.957088","MEAN_MOTION":15.08840886,"ECCENTRICITY":0.00014127,"INCLINATION":53.2173,"RA_OF_ASC_NODE":317.5042,"ARG_OF_PERICENTER":89.3076,"MEAN_ANOMALY":270.8078,"EPHEMERIS_TYPE":0,"CLASSIFICATION_TYPE":"U","NORAD_CAT_ID":52567,"ELEMENT_SET_NO":999,"REV_AT_EPOCH":19280,"BSTAR":-8.112305e-6,"MEAN_MOTION_DOT":-4.17e-6,"MEAN_MOTION_DDOT":0},{"OBJECT_NAME":"STARLINK-3930","OBJECT_ID":"2022-051AM","EPOCH":"2025-11-05T07:03:00.976320","MEAN_MOTION":15.08834258,"ECCENTRICITY":0.00015756,"INCLINATION":53.2185,"RA_OF_ASC_NODE":317.5547,"ARG_OF_PERICENTER":97.5814,"MEAN_ANOMALY":262.5357,"EPHEMERIS_TYPE":0,"CLASSIFICATION_TYPE":"U","NORAD_CAT_ID":52568,"ELEMENT_SET_NO":999,"REV_AT_EPOCH":19280,"BSTAR":-6.1184451e-5,"MEAN_MOTION_DOT":-1.261e-5,"MEAN_MOTION_DDOT":0},{"OBJECT_NAME":"STARLINK-3927","OBJECT_ID":"2022-051AN","EPOCH":"2025-11-05T07:13:35.909184","MEAN_MOTION":15.08842588,"ECCENTRICITY":0.00013829,"INCLINATION":53.2174,"RA_OF_ASC_NODE":317.523,"ARG_OF_PERICENTER":87.4677,"MEAN_ANOMALY":272.6474,"EPHEMERIS_TYPE":0,"CLASSIFICATION_TYPE":"U","NORAD_CAT_ID":52569,"ELEMENT_SET_NO":999,"REV_AT_EPOCH":19280,"BSTAR":1.3594483e-5,"MEAN_MOTION_DOT":-7.2e-7,"MEAN_MOTION_DDOT":0},{"OBJECT_NAME":"STARLINK-3901","OBJECT_ID":"2022-051AQ","EPOCH":"2025-11-05T07:08:18.693312","MEAN_MOTION":15.08838279,"ECCENTRICITY":0.00016857,"INCLINATION":53.2196,"RA_OF_ASC_NODE":317.5394,"ARG_OF_PERICENTER":86.0676,"MEAN_ANOMALY":274.0509,"EPHEMERIS_TYPE":0,"CLASSIFICATION_TYPE":"U","NORAD_CAT_ID":52574,"ELEMENT_SET_NO":999,"REV_AT_EPOCH":19280,"BSTAR":-7.0003011e-5,"MEAN_MOTION_DOT":-1.402e-5,"MEAN_MOTION_DDOT":0},{"OBJECT_NAME":"STARLINK-3920","OBJECT_ID":"2022-051AR","EPOCH":"2025-11-05T22:35:23.352864","MEAN_MOTION":15.80243959,"ECCENTRICITY":8.824e-5,"INCLINATION":53.2114,"RA_OF_ASC_NODE":278.3409,"ARG_OF_PERICENTER":90.2772,"MEAN_ANOMALY":269.8352,"EPHEMERIS_TYPE":0,"CLASSIFICATION_TYPE":"U","NORAD_CAT_ID":52575,"ELEMENT_SET_NO":999,"REV_AT_EPOCH":19341,"BSTAR":1.4589878e-5,"MEAN_MOTION_DOT":2.107e-5,"MEAN_MOTION_DDOT":0},{"OBJECT_NAME":"STARLINK-3932","OBJECT_ID":"2022-051AS","EPOCH":"2025-11-05T08:18:34.911360","MEAN_MOTION":15.08836824,"ECCENTRICITY":0.0001536,"INCLINATION":53.2175,"RA_OF_ASC_NODE":317.3198,"ARG_OF_PERICENTER":83.4074,"MEAN_ANOMALY":276.7093,"EPHEMERIS_TYPE":0,"CLASSIFICATION_TYPE":"U","NORAD_CAT_ID":52576,"ELEMENT_SET_NO":999,"REV_AT_EPOCH":19281,"BSTAR":-1.816901e-6,"MEAN_MOTION_DOT":-3.17e-6,"MEAN_MOTION_DDOT":0},{"OBJECT_NAME":"STARLINK-3836","OBJECT_ID":"2022-051AT","EPOCH":"2025-11-05T22:15:07.486272","MEAN_MOTION":15.08845383,"ECCENTRICITY":0.00013318,"INCLINATION":53.2176,"RA_OF_ASC_NODE":329.713,"ARG_OF_PERICENTER":84.2143,"MEAN_ANOMALY":275.9001,"EPHEMERIS_TYPE":0,"CLASSIFICATION_TYPE":"U","NORAD_CAT_ID":52577,"ELEMENT_SET_NO":999,"REV_AT_EPOCH":19269,"BSTAR":2.3393073e-5,"MEAN_MOTION_DOT":8.4e-7,"MEAN_MOTION_DDOT":0},{"OBJECT_NAME":"STARLINK-3833","OBJECT_ID":"2022-051AU","EPOCH":"2025-11-05T11:12:44.229312","MEAN_MOTION":15.08798375,"ECCENTRICITY":0.00015042,"INCLINATION":53.2184,"RA_OF_ASC_NODE":331.7771,"ARG_OF_PERICENTER":99.6673,"MEAN_ANOMALY":260.4489,"EPHEMERIS_TYPE":0,"CLASSIFICATION_TYPE":"U","NORAD_CAT_ID":52578,"ELEMENT_SET_NO":999,"REV_AT_EPOCH":19262,"BSTAR":0.00055030626,"MEAN_MOTION_DOT":8.471e-5,"MEAN_MOTION_DDOT":0},{"OBJECT_NAME":"STARLINK-3893","OBJECT_ID":"2022-051AV","EPOCH":"2025-11-05T09:21:27.055008","MEAN_MOTION":15.08836898,"ECCENTRICITY":0.000127,"INCLINATION":53.2176,"RA_OF_ASC_NODE":332.1239,"ARG_OF_PERICENTER":88.0742,"MEAN_ANOMALY":272.0396,"EPHEMERIS_TYPE":0,"CLASSIFICATION_TYPE":"U","NORAD_CAT_ID":52579,"ELEMENT_SET_NO":999,"REV_AT_EPOCH":19261,"BSTAR":2.2432976e-5,"MEAN_MOTION_DOT":6.9e-7,"MEAN_MOTION_DDOT":0},{"OBJECT_NAME":"STARLINK-3919","OBJECT_ID":"2022-051AW","EPOCH":"2025-11-05T11:03:30.789792","MEAN_MOTION":15.08840965,"ECCENTRICITY":0.0001413,"INCLINATION":53.2178,"RA_OF_ASC_NODE":331.814,"ARG_OF_PERICENTER":93.2915,"MEAN_ANOMALY":266.8239,"EPHEMERIS_TYPE":0,"CLASSIFICATION_TYPE":"U","NORAD_CAT_ID":52580,"ELEMENT_SET_NO":999,"REV_AT_EPOCH":19262,"BSTAR":-2.3234473e-5,"MEAN_MOTION_DOT":-6.58e-6,"MEAN_MOTION_DDOT":0}]
