STARLINK-3955           
1 52561U 22051AE  25309.36413271  .00000116  00000+0  25364-4 0  9996
2 52561  53.2181 332.2390 0001446  87.3108 272.8050 15.08838826192606
STARLINK-3957           
1 52562U 22051AF  25309.30847412 -.00001254  00000+0 -60719-4 0  9998
2 52562  53.2190 317.4894 0001613 102.1346 257.9827 15.08840275192806
STARLINK-3942           
1 52563U 22051AG  25309.36781451 -.00000434  00000+0 -91696-5 0  9993
2 52563  53.2187 332.2233 0001157  81.2433 278.8690 15.08836487192600
STARLINK-3959           
1 52564U 22051AH  25309.36139659  .00002049  00000+0  14672-3 0  9990
2 52564  53.2184 332.2606 0001404  87.4049 272.7104 15.08854950192606
STARLINK-3911           
1 52565U 22051AJ  25309.97455478 -.00000253  00000+0  21635-5 0  9993
2 52565  53.2173 314.4999 0001321  87.4099 272.7045 15.08837603192908
STARLINK-3938           
1 52566U 22051AK  25309.33837298 -.00000110  00000+0  11204-4 0  9990
2 52566  53.2187 332.3552 0001590  81.0477 279.0695 15.08841064192600
STARLINK-3929           
1 52567U 22051AL  25309.30479117 -.00000417  00000+0 -81123-5 0  9999
2 52567  53.2173 317.5042 0001412  89.3076 270.8078 15.08840886192801
STARLINK-3930           
1 52568U 22051AM  25309.29376130 -.00001261  00000+0 -61184-4 0  9991
2 52568  53.2185 317.5547 0001575  97.5814 262.5357 15.08834258192800
STARLINK-3927           
1 52569U 22051AN  25309.30111006 -.00000072  00000+0  13594-4 0  9993
2 52569  53.2174 317.5230 0001382  87.4677 272.6474 15.08842588192806
STARLINK-3901           
1 52574U 22051AQ  25309.29743858 -.00001402  00000+0 -70003-4 0  9990
2 52574  53.2196 317.5394 0001685  86.0676 274.0509 15.08838279192804
STARLINK-3920           
1 52575U 22051AR  25309.94124251  .00002107  00000+0  14590-4 0  9993
2 52575  53.2114 278.3409 0000882  90.2772 269.8352 15.80243959193419
STARLINK-3932           
1 52576U 22051AS  25309.34623740 -.00000317  00000+0 -18169-5 0  9995
2 52576  53.2175 317.3198 0001536  83.4074 276.7093 15.08836824192813
STARLINK-3836           
1 52577U 22051AT  25309.92716998  .00000084  00000+0  23393-4 0  9991
2 52577  53.2176 329.7130 0001331  84.2143 275.9001 15.08845383192693
STARLINK-3833           
1 52578U 22051AU  25309.46717858  .00008471  00000+0  55031-3 0  9998
2 52578  53.2184 331.7771 0001504  99.6673 260.4489 15.08798375192627
STARLINK-3893           
1 52579U 22051AV  25309.38989647  .00000069  00000+0  22433-4 0  9993
2 52579  53.2176 332.1239 0001270  88.0742 272.0396 15.08836898192610
STARLINK-3919           
1 52580U 22051AW  25309.46077303 -.00000658  00000+0 -23234-4 0  9997
2 52580  53.2178 331.8140 0001413  93.2915 266.8239 15.08840965192628
